[{"OBJECT_NAME":"STARLINK-31263","OBJECT_ID":"2024-017G","EPOCH":"2026-03-09T13:33:11.128032","MEAN_MOTION":15.30192685,"ECCENTRICITY":9.65e-5,"INCLINATION":53.1593,"RA_OF_ASC_NODE":194.487,"ARG_OF_PERICENTER":55.701,"MEAN_ANOMALY":304.4082,"EPHEMERIS_TYPE":0,"CLASSIFICATION_TYPE":"U","NORAD_CAT_ID":58832,"ELEMENT_SET_NO":999,"REV_AT_EPOCH":12029,"BSTAR":2.6592e-6,"MEAN_MOTION_DOT":-2.8e-6,"MEAN_MOTION_DDOT":0},{"OBJECT_NAME":"TEVEL2-1","OBJECT_ID":"2025-052H","EPOCH":"2026-03-09T15:32:51.927072","MEAN_MOTION":15.30341923,"ECCENTRICITY":0.0004767,"INCLINATION":97.3991,"RA_OF_ASC_NODE":324.7682,"ARG_OF_PERICENTER":104.8919,"MEAN_ANOMALY":255.2849,"EPHEMERIS_TYPE":0,"CLASSIFICATION_TYPE":"U","NORAD_CAT_ID":63217,"ELEMENT_SET_NO":999,"REV_AT_EPOCH":5485,"BSTAR":0.000706,"MEAN_MOTION_DOT":0.00020683,"MEAN_MOTION_DDOT":0}]
